ONEWEB-0371             
1 49297U 21090U   25152.66537773  .00000014  00000+0  34706-5 0  9991
2 49297  87.9234  20.6103 0001871  87.8286 272.3060 13.19724826176269
ONEWEB-0372             
1 49298U 21090V   25153.77133159 -.00000023  00000+0 -88937-4 0  9991
2 49298  87.9262 350.0124 0001733  92.2409 267.8923 13.20771636181051
ONEWEB-0373             
1 49299U 21090W   25152.58619620  .00000008  00000+0 -12265-4 0  9995
2 49299  87.9262 350.2592 0001700  83.1011 277.0315 13.20770771182086
ONEWEB-0374             
1 49300U 21090X   25153.82380608  .00000057  00000+0  12046-3 0  9996
2 49300  87.9045   5.1720 0001427  72.7078 287.4208 13.14504108179017
ONEWEB-0375             
1 49301U 21090Y   25153.10386670  .00000070  00000+0  14114-3 0  9996
2 49301  87.9262 350.1341 0001874  68.7775 291.3558 13.20771407181645
ONEWEB-0376             
1 49302U 21090Z   25152.66380099  .00000080  00000+0  16735-3 0  9998
2 49302  87.9225  20.5966 0001734  90.9893 269.1438 13.19725049176260
ONEWEB-0377             
1 49303U 21090AA  25153.77160965 -.00000007  00000+0 -49039-4 0  9995
2 49303  87.9261 349.9942 0002091  85.3929 274.7443 13.20770527181715
ONEWEB-0378             
1 49304U 21090AB  25152.80886082  .00000147  00000+0  32866-3 0  9996
2 49304  87.9263 350.1929 0001759  84.1054 276.0280 13.20773849179578
